NSS-11 (AAP-1)          
1 26554U 00059A   17127.86513277 -.00000361  00000-0  00000-0 0  9994
2 26554   0.0465  76.5755 0002455 336.0336 232.9236  1.00271660  7944
N-SAT-110 (JCSAT-110)   
1 26559U 00060A   17127.93832983 -.00000366  00000-0  00000-0 0  9992
2 26559   0.0227  93.8002 0001734 354.9439 225.0828  1.00267812  7915
AMC-6 (GE-6)            
1 26580U 00067A   17127.43152917 -.00000289  00000-0  00000-0 0  9994
2 26580   0.0185 358.2720 0001609  15.5251 300.0043  1.00271233 60611
INTELSAT 12 (IS-12)     
1 26590U 00068A   17127.92583896  .00000121  00000-0  00000-0 0  9998
2 26590   0.4005  93.3345 0001946 322.6205 188.2843  1.00273709 18350
INTELSAT 1R (IS-1R)     
1 26608U 00072A   17127.52479733  .00000081  00000-0  00000-0 0  9998
2 26608   0.2248  88.9711 0003064 314.8363 205.0739  1.00038078 60284
ANIK F1                 
1 26624U 00076A   17126.67392883 -.00000093  00000-0  00000-0 0  9999
2 26624   0.0148 164.8648 0002876 269.0601 286.1068  1.00271140 60350
ASTRA 2D                
1 26638U 00081A   17126.40536378  .00000030  00000-0  00000-0 0  9990
2 26638   3.5710  70.2243 0001840 333.1673  26.7010  1.00274465 60001
AMC-8 (GE-8)            
1 26639U 00081B   17127.61359309  .00000088  00000-0  00000-0 0  9995
2 26639   0.0612  80.1148 0003015 338.1394 249.2835  1.00272580 59988
SKYNET 4F               
1 26695U 01005B   17127.09929763 -.00000263  00000-0  00000-0 0  9999
2 26695   8.8539  36.9345 0003229 351.5556 198.3548  1.00270009 59516
EUTELSAT 33C            
1 26719U 01011A   17127.85390387  .00000140  00000-0  00000-0 0  9994
2 26719   0.0816  41.3702 0004698 355.4154 169.5714  1.00271247 59183
INTELSAT 10 (IS-10)     
1 26766U 01019A   17127.92490720  .00000112  00000-0  00000-0 0  9993
2 26766   1.4347  85.3371 0002773 303.3586 217.7071  1.00272112 12275
INTELSAT 901 (IS-901)   
1 26824U 01024A   17127.80446640 -.00000156  00000-0  00000-0 0  9992
2 26824   0.0145 292.6960 0002968 106.7135  98.0192  1.00271889 58239
ASTRA 2C                
1 26853U 01025A   17127.73174240  .00000031  00000-0  00000-0 0  9992
2 26853   0.3152  90.9373 0003527 313.0374 145.4819  1.00272230 11692
ARTEMIS                 
1 26863U 01029A   17126.63868785 -.00000383  00000-0  00000-0 0  9990
2 26863  12.6903  33.4948 0002506  32.1533 151.9234  1.00268941 59021
INTELSAT 902 (IS-902)   
1 26900U 01039A   17127.73174240  .00000016  00000-0  00000-0 0  9993
2 26900   0.0144 298.9875 0002791 112.6960 139.5022  1.00271721 57353
EUTELSAT 12 WEST B      
1 26927U 01042A   17127.87879394 -.00000116  00000-0  00000-0 0  9995
2 26927   0.0517  15.2026 0006193  22.1411 132.4209  1.00273049 57152
DIRECTV 4S              
1 26985U 01052A   17127.53817319 -.00000130  00000-0  00000-0 0  9998
2 26985   0.0055 190.6345 0001989 208.6386 278.8458  1.00272479 56623
INSAT-3C                
1 27298U 02002A   17127.95903323 -.00000273  00000-0  00000-0 0  9997
2 27298   0.5406  91.6177 0004357 241.0621 332.0753  1.00271712 56040
ECHOSTAR 7              
1 27378U 02006A   17127.50741047 -.00000017  00000-0  00000-0 0  9990
2 27378   0.0220  68.7020 0001657 337.7569 242.9138  1.00270855 55697
INTELSAT 904 (IS-904)   
1 27380U 02007A   17127.67655862  .00000120  00000-0  00000-0 0  9995
2 27380   0.0575  96.9455 0002551 318.4658  98.9473  1.00272132 18406
TDRS 9                  
1 27389U 02011A   17127.80430819 -.00000112  00000-0  00000-0 0  9999
2 27389   5.1680  79.5673 0019759 251.8920 171.7475  1.00273050 57086
JCSAT 2A                
1 27399U 02015A   17127.83907466 -.00000321  00000-0  00000-0 0  9996
2 27399   0.3947  92.7956 0000137  34.1187 177.0908  1.00272161 55538
ASTRA 3A                
1 27400U 02015B   17126.69747231 -.00000297  00000-0  00000-0 0  9996
2 27400   3.7377  68.9656 0003234 340.6046  19.2530  1.00269862 55359
INTELSAT 903 (IS-903)   
1 27403U 02016A   17127.41507788 -.00000255  00000-0  00000-0 0  9996
2 27403   0.0147 281.9186 0003105 123.3974 295.0497  1.00271839 55279
NSS-7                   
1 27414U 02019A   17126.66239940 -.00000173  00000-0  00000-0 0  9998
2 27414   1.8098  83.2320 0002531 325.1888  34.7567  1.00272520 55191
DIRECTV 5 (TEMPO 1)     
1 27426U 02023A   17126.68172783 -.00000075  00000-0  00000-0 0  9990
2 27426   0.0181 277.3638 0003532 122.2735 320.3858  1.00271802 54935
INTELSAT 905 (IS-905)   
1 27438U 02027A   17127.41507788 -.00000201  00000-0  00000-0 0  9997
2 27438   0.0119 267.7273 0002921 118.0485 324.5969  1.00271872 18007
EXPRESS-A4              
1 27441U 02029A   17127.90122648 -.00000258  00000-0  00000-0 0  9997
2 27441   5.9960  56.7627 0003119  41.7915 237.1691  1.00275536 54606
GALAXY 3C (G-3C)        
1 27445U 02030A   17126.63992163 -.00000170  00000-0  00000-0 0  9992
2 27445   0.0163 298.1917 0002059  35.6612  26.1338  1.00273040 54582
EUTELSAT 5 WEST A       
1 27460U 02035A   17127.38786110 -.00000059  00000-0  00000-0 0  9996
2 27460   0.0470 348.8867 0005416  52.3078 318.8448  1.00271780 54266
N-STAR C                
1 27461U 02035B   17127.66217038 -.00000324  00000-0  00000-0 0  9991
2 27461   4.5578  65.0145 0003930 329.8414 205.2090  1.00270012 54367
ECHOSTAR 8              
1 27501U 02039A   17127.50741007  .00000012  00000-0  00000-0 0  9994
2 27501   0.9478  85.0874 0010155 322.5683 242.1279  0.98508035 19272
EUTELSAT 36 WEST A      
1 27508U 02040A   17126.47637043 -.00000264  00000-0  00000-0 0  9992
2 27508   0.0697  10.9688 0005988  19.9892 329.0742  1.00273636 53829
METEOSAT-8 (MSG-1)      
1 27509U 02040B   17127.92198177  .00000128  00000-0  00000-0 0  9992
2 27509   4.7740  58.4987 0001128 296.5471 244.1292  1.00268125 53898
INTELSAT 906 (IS-906)   
1 27513U 02041A   17127.83501406 -.00000001  00000-0  00000-0 0  9992
2 27513   0.0228 276.9496 0002388 127.9883 185.6789  1.00272020 53673
KODAMA (DRTS)           
1 27516U 02042B   17127.88817396 -.00000253  00000-0  00000-0 0  9998
2 27516   4.9715  62.2870 0002990 347.8047 226.3175  1.00272388 53686
KALPANA-1 (METSAT 1)    
1 27525U 02043A   17127.32369125 -.00000093  00000-0  00000-0 0  9992
2 27525   6.2842  55.4934 0013201 236.1952 123.5437  1.00273375 53696
HISPASAT 1D             
1 27528U 02044A   17127.41507788 -.00000233  00000-0  00000-0 0  9991
2 27528   0.0306 326.2827 0004934  62.5978 316.0025  1.00272914 53575
TDRS 10                 
1 27566U 02055A   17127.02134656  .00000064  00000-0  00000-0 0  9993
2 27566   4.9655  58.5853 0008754 245.3736 114.3876  1.00275256 52864
NSS-6                   
1 27603U 02057A   17127.91664094 -.00000285  00000-0  00000-0 0  9995
2 27603   0.0051  93.6822 0001667 283.3272 273.9231  1.00272043 52736
NIMIQ 2                 
1 27632U 02062A   17126.72046623 -.00000284  00000-0  00000-0 0  9992
2 27632   1.9126  82.1714 0003155 263.0975  96.8130  0.99547266 10837
INTELSAT 907 (IS-907)   
1 27683U 03007A   17126.45285727 -.00000222  00000-0  00000-0 0  9990
2 27683   0.0144 263.5567 0003065 138.7125 317.7513  1.00273587 52010
GALAXY 12 (G-12)        
1 27715U 03013B   17127.63394264  .00000043  00000-0  00000-0 0  9991
2 27715   0.0529  92.1855 0002062 306.4905 286.1957  1.00271007 51638
ASIASAT 4               
1 27718U 03014A   17127.19542595 -.00000378  00000-0  00000-0 0  9990
2 27718   0.0505  88.8765 0000299 236.4662  92.3211  1.00269324 51559
HELLAS-SAT 2            
1 27811U 03020A   17127.83313270  .00000136  00000-0  00000-0 0  9999
2 27811   0.0100  82.5841 0004101 314.3181 167.8944  1.00269076  9499
AMC-9 (GE-12)           
1 27820U 03024A   17127.53382632 -.00000232  00000-0  00000-0 0  9996
2 27820   0.0277 300.4587 0002621 101.0177 293.2631  1.00269489 51014
THURAYA-2               
1 27825U 03026A   17127.92568086  .00000116  00000-0  00000-0 0  9995
2 27825   4.8851  29.0006 0004973   3.7641 210.4110  1.00273570 50989
OPTUS C1                
1 27831U 03028B   17127.79436069 -.00000163  00000-0  00000-0 0  9997
2 27831   0.0461 137.0692 0002900 280.8093 249.9222  1.00271968 50956
ECHOSTAR 12 (RAINBOW 1) 
1 27852U 03033A   17127.44354911 -.00000299  00000-0  00000-0 0  9993
2 27852   0.0239  80.3027 0001518 333.6033 270.0399  1.00274802 50612
GALAXY 23 (G-23)        
1 27854U 03034A   17127.54840987 -.00000004  00000-0  00000-0 0  9994
2 27854   0.0108 294.3390 0002913 113.8765 253.8089  1.00272632 50376
EUTELSAT 33A            
1 27948U 03043A   17127.57758008  .00000137  00000-0  00000-0 0  9999
2 27948   2.2927  78.4418 0002424 241.8106 144.1271  1.00270907 49964
GALAXY 13 (HORIZONS-1)  
1 27954U 03044A   17127.48432079  .00000032  00000-0  00000-0 0  9998
2 27954   0.0375 105.6186 0001195 331.0649 196.1559  1.00271649 13216
ZHONGXING-20            
1 28082U 03052A   17127.25415390 -.00000339  00000-0  00000-0 0  9993
2 28082   3.4261  71.4834 0003936 307.7600  40.6730  1.00265558 49385
YAMAL 202               
1 28089U 03053A   17127.92319973  .00000104  00000-0  00000-0 0  9994
2 28089   0.0515  86.4628 0003742 310.3449 210.4694  1.00271304 49315
EXPRESS-AM22 (SESAT 2)  
1 28134U 03060A   17127.85883935 -.00000153  00000-0  00000-0 0  9994
2 28134   0.3676  90.8014 0000585 337.2508 187.1094  1.00272194 48918
AMC-10 (GE-10)          
1 28154U 04003A   17127.63843806  .00000072  00000-0  00000-0 0  9992
2 28154   0.0098 302.8729 0002695 115.2716 262.3495  1.00273287 48547
ABS-4 (MOBISAT-1)       
1 28184U 04007A   17127.66389307  .00000025  00000-0  00000-0 0  9991
2 28184   0.0218 284.5647 0001628 131.3533 109.7561  1.00272225 48213
EUTELSAT 7A             
1 28187U 04008A   17127.85257466  .00000032  00000-0  00000-0 0  9994
2 28187   0.0715  20.5133 0003807  44.8453 114.4359  1.00274091 48026
DIRECTV 7S              
1 28238U 04016A   17127.50740951 -.00000015  00000-0  00000-0 0  9990
2 28238   0.0235   7.4152 0003284  39.7410 241.9754  1.00272634 47698
